C/2021 C6 (Lemmon),e,164.6044,332.3454,203.8208,3226,0.0000054,0.99898359,0.0000,11/12.3278/2021,2000,g 12.0,4.0
# From MPEC 2022-F14
C/2021 D1 (SWAN),e,31.3926,311.2265,72.3488,101.7267,0.0009606,0.99110381,0.0000,02/27.6948/2021,2000,g 13.0,4.0
# From MPEC 2023-J29
C/2021 D2 (ZTF),h,02/03.8900/2022,83.7887,305.6536,125.0369,1.001552,2.947021,2000,9.0,4.0
# From MPEC 2022-UY9
A/2021 E2,e,167.4900,190.7927,342.2892,209.9388,0.0003240,0.98912712,0.0000,12/09.8053/2020,2000,g 15.0,2.0
# From MPEC 2024-GJ3
C/2021 E3 (ZTF),h,06/11.7004/2022,112.5296,104.4834,228.8269,1.000410,1.777124,2000,8.5,4.0
# From MPEC 2024-N80
A/2021 E4,e,116.3652,171.1602,48.2673,521.2808,0.0000828,0.99102697,0.0000,04/24.9582/2022,2000,g 13.5,22.0
# From MPEC 2022-QD9
C/2021 F1 (Lemmon-PANSTARRS),e,107.3131,203.4874,146.8943,243.9158,0.0002587,0.99590900,0.0000,04/06.7633/2022,2000,g 13.5,4.0
# From MPEC 2021-J72
C/2021 G1 (Leonard),e,131.5492,270.6999,107.4362,72.09426,0.0016101,0.95249007,1.7531,07/14.0/2024,2000,g 14.0,4.0
# From MPEC 2024-NE4
C/2021 G2 (ATLAS),h,09/09.2376/2024,48.4738,221.0947,343.2818,1.000154,4.982378,2000,5.5,4.0
# From MPEC 2022-X67
C/2021 G3 (PANSTARRS),e,102.8694,147.3762,10.5804,10085,0.0000010,0.99948635,0.0000,10/17.8734/2021,2000,g 10.5,4.0
# From MPEC 2021-Y10
P/2021 HS (PANSTARRS),e,12.1556,262.3626,46.1398,4.194226,0.1147430,0.80948788,123.1569,07/14.0/2024,2000,g 22.0,4.0
# From MPEC 2022-C56
C/2021 J1 (Maury-Attard),e,92.7120,88.4168,147.2655,26.28545,0.0073136,0.93388687,9.0734,07/14.0/2024,2000,g 15.5,4.0
# From MPEC 2023-XP6
C/2021 J2 (PANSTARRS),e,156.2123,23.3274,171.9392,114.5550,0.0008039,0.95895428,0.8251,07/14.0/2024,2000,g 12.0,4.0
# From MPEC 2024-F34
P/2021 J3 (ATLAS),e,14.5223,111.0862,125.7996,8.908366,0.0370687,0.44902804,68.1820,07/14.0/2024,2000,g  7.0,4.0
# From MPEC 2022-O08
C/2021 K1 (ATLAS),e,16.2731,140.9172,184.2605,12.63690,0.0219403,0.80210196,25.6159,07/14.0/2024,2000,g 11.0,4.0
# From MPEC 2022-O01
C/2021 K2 (MASTER),h,09/09.6058/2021,100.8651,282.3234,343.3328,1.000853,5.467862,2000,8.0,4.0
# From MPEC 2022-L66
C/2021 K3 (Catalina),h,02/03.9191/2022,134.7787,114.5874,182.0495,1.004480,5.231103,2000,10.0,4.0
# From MPEC 2021-W31
P/2021 L2 (Leonard),e,21.0648,266.6539,51.4868,4.048357,0.1210001,0.52075865,131.4525,07/14.0/2024,2000,g 17.0,4.0
# From MPEC 2024-H50
C/2021 L3 (Borisov),h,02/14.7482/2022,78.5601,345.0002,91.6352,1.004555,8.458873,2000,6.0,4.0
# From MPEC 2022-TA0
P/2021 N1 (ZTF),e,11.4883,301.1460,21.2387,2.978910,0.1916981,0.67590221,217.4069,07/14.0/2024,2000,g 19.0,4.0
# From MPEC 2024-GJ3
P/2021 N2 (Fuls),e,13.0611,221.7326,177.5674,6.943948,0.0538635,0.45251620,52.3920,07/14.0/2024,2000,g  9.5,4.0
# From MPEC 2022-YB4
C/2021 N3 (PANSTARRS),e,26.7515,337.5058,304.6960,144.6514,0.0005665,0.96048204,0.8078,07/14.0/2024,2000,g  8.5,4.0
# From MPEC 2022-A21
C/2021 O1 (Nishimura),e,27.5920,41.5883,74.3908,3038,0.0000059,0.99974214,0.0000,08/14.3655/2021,2000,g 10.5,4.0
# From MPEC 2022-L66
C/2021 O3 (PANSTARRS),h,04/21.1377/2022,56.8035,188.9345,299.9629,1.000043,0.285854,2000,10.5,4.0
# From MPEC 2024-F34
C/2021 P1 (PANSTARRS),e,51.6326,359.6917,40.5062,2911,0.0000063,0.99849650,0.0000,06/02.6255/2022,2000,g 11.0,4.0
# From MPEC 2024-NE4
C/2021 P2 (PANSTARRS),e,150.0621,32.0846,76.7216,6269,0.0000020,0.99919139,0.0000,01/23.0252/2023,2000,g  9.0,4.0
# From MPEC 2024-GJ3
P/2021 P3 (PANSTARRS),e,27.1610,358.2460,334.0721,4.412426,0.1063379,0.33860460,121.3939,07/14.0/2024,2000,g 14.0,4.0
# From MPEC 2023-A50
C/2021 P4 (ATLAS),e,56.3330,348.0563,175.7950,296.0661,0.0001935,0.99635441,0.0000,07/30.3444/2022,2000,g  9.5,4.0
# From MPEC 2023-E68
P/2021 PE20 (ATLAS),e,20.0006,99.6253,210.4647,3.745957,0.1359440,0.66992824,154.1179,07/14.0/2024,2000,g 17.0,4.0
# From MPEC 2023-FK0
C/2021 Q3 (ATLAS),e,77.7338,307.9142,114.1228,75.55981,0.0015006,0.93109862,1.3501,07/14.0/2024,2000,g  8.0,4.0
# From MPEC 2024-NE4
C/2021 Q4 (Fuls),h,06/11.5069/2023,71.4915,183.3270,147.0740,1.002777,7.565524,2000,6.0,4.0
# From MPEC 2022-C56
P/2021 Q5 (ATLAS),e,10.7399,239.7572,180.9383,3.286910,0.1653950,0.62466738,173.3352,07/14.0/2024,2000,g 15.0,4.0
# From MPEC 2024-NE4
C/2021 Q6 (PANSTARRS),h,03/25.1813/2024,161.8418,133.5475,141.0395,1.001973,8.707865,2000,6.0,4.0
# From MPEC 2023-FK0
C/2021 QM45 (PANSTARRS),e,22.8131,354.5973,72.8677,394.2752,0.0001259,0.99296112,0.0000,08/13.6647/2022,2000,g 11.0,4.0
# From MPEC 2022-X67
P/2021 R1 (PANSTARRS),e,5.5230,143.2185,220.2068,8.289119,0.0412992,0.41065224,38.9815,07/14.0/2024,2000,g 11.0,4.0
# From MPEC 2022-X67
C/2021 R2 (PANSTARRS),e,134.4837,16.3119,32.5154,4805,0.0000030,0.99847736,0.0000,12/27.9274/2021,2000,g  7.5,4.0
# From MPEC 2021-W31
P/2021 R3 (PANSTARRS),e,19.9339,304.1935,2.6746,3.770732,0.1346064,0.33105386,154.2329,07/14.0/2024,2000,g 16.0,4.0
# From MPEC 2021-W31
P/2021 R4 (Wierzchos),e,21.0226,321.2934,56.7301,5.625885,0.0738615,0.58573045,74.1608,07/14.0/2024,2000,g 16.0,4.0
# From MPEC 2024-JU4
P/2021 R5 (Rankin),e,7.8544,219.9546,167.5577,4.796270,0.0938315,0.30639796,85.6935,07/14.0/2024,2000,g 12.0,4.0
# From MPEC 2021-W31
P/2021 R6 (Groeller),e,34.9114,176.1607,220.8312,6.286100,0.0625363,0.59335098,61.6487,07/14.0/2024,2000,g 14.5,4.0
# From MPEC 2022-X67
C/2021 R7 (PANSTARRS),e,158.8659,170.1742,140.3293,888.5201,0.0000372,0.99363833,0.0000,04/16.7243/2021,2000,g 10.5,4.0
# From MPEC 2021-Y10
P/2021 R8 (Sheppard),e,2.2031,167.0739,190.8364,3.019296,0.1878648,0.29293230,189.8870,07/14.0/2024,2000,g 18.5,4.0
# From MPEC 2023-J29
C/2021 S1 (ATLAS),h,03/01.6257/2022,52.0498,299.8678,148.2488,1.002664,6.121425,2000,7.0,4.0
# From MPEC 2024-NE4
C/2021 S3 (PANSTARRS),h,02/14.7059/2024,58.5330,215.6205,6.8510,1.000222,1.320177,2000,5.5,4.0
# From MPEC 2024-GJ3
C/2021 S4 (Tsuchinshan),e,17.4781,5.4771,72.9522,161.4685,0.0004804,0.95856999,0.0926,07/14.0/2024,2000,g  6.5,4.0
# From MPEC 2022-OB6
C/2021 T1 (Lemmon),e,140.3613,56.8444,51.5686,2054,0.0000106,0.99850946,0.0000,10/14.4624/2021,2000,g 12.5,4.0
# From MPEC 2023-A50
C/2021 T2 (Fuls),h,06/08.1012/2022,117.5364,223.2317,263.5772,1.000523,1.246318,2000,12.0,4.0
# From MPEC 2024-N80
C/2021 T4 (Lemmon),e,160.7782,257.8892,329.8120,18289,0.0000004,0.99991892,0.0000,07/31.5417/2023,2000,g  7.5,4.0
# From MPEC 2022-ED3
P/2021 U1 (Wierzchos),e,30.5519,246.7899,145.1823,8.535021,0.0395273,0.71296191,40.1948,07/14.0/2024,2000,g 14.5,4.0
# From MPEC 2022-L66
P/2021 U3 (Attard-Maury),e,69.9623,75.0941,335.2873,4.195450,0.1146928,0.54973777,113.8998,07/14.0/2024,2000,g 15.5,4.0
# From MPEC 2021-W31
C/2021 U4 (Leonard),e,152.8896,241.8086,237.3362,45.28551,0.0032342,0.96049776,3.0234,07/14.0/2024,2000,g 17.0,4.0
# From MPEC 2022-WQ9
C/2021 U5 (Catalina),e,39.0439,182.7253,321.4279,218.3392,0.0003055,0.98919047,0.0000,01/26.7218/2022,2000,g 13.0,4.0
# From MPEC 2022-CN4
C/2021 V1 (Rankin),e,71.4506,207.6748,195.1802,684.8383,0.0000550,0.99559512,0.0000,04/30.5994/2022,2000,g 13.0,4.0
# From MPEC 2024-JU4
P/2021 V2 (Fuls),e,12.6948,232.2756,259.8618,9.078356,0.0360324,0.61483835,19.4347,07/14.0/2024,2000,g 10.0,4.0
# From MPEC 2024-NE4
C/2021 X1 (Maury-Attard),h,05/27.1557/2023,140.0999,10.5945,334.5730,1.000281,3.233674,2000,7.0,4.0
# From MPEC 2024-E08
C/2021 X2 (Bok),h,07/08.1533/2022,137.1605,228.8253,193.3322,1.001062,2.996377,2000,13.0,4.0
# From MPEC 2024-GJ3
C/2021 Y1 (ATLAS),h,04/30.7810/2023,77.1946,244.7669,245.8372,1.001261,2.032567,2000,7.0,4.0
# From MPEC 2022-YN2
C/2022 A1 (Sarneczky),e,116.5452,285.5040,201.2497,355.0174,0.0001473,0.99646607,0.0000,01/31.0486/2022,2000,g 18.0,4.0
# From MPEC 2024-NE4
C/2022 A2 (PANSTARRS),h,02/18.2138/2023,108.1377,171.5853,88.3681,1.000210,1.735508,2000,9.5,4.0
# From MPEC 2024-NE4
C/2022 A3 (Lemmon-ATLAS),e,88.3414,325.4708,234.8545,859.1325,0.0000391,0.99568898,0.0000,09/28.8814/2023,2000,g  8.0,4.0
# From MPEC 2022-K19
P/2022 B1 (Wierzchos),e,10.9910,325.4209,148.8824,5.467547,0.0770931,0.65344614,67.0223,07/14.0/2024,2000,g 16.5,4.0
# From MPEC 2022-YB4
A/2022 B3,e,132.0534,286.1868,150.6954,677.2545,0.0000559,0.99453555,0.0000,01/17.0808/2022,2000,g 16.5,2.0
# From MPEC 2022-GA9
C/2022 B4 (Bok),e,20.0486,340.5853,152.9611,388.2078,0.0001289,0.99645339,0.0000,01/30.1233/2022,2000,g 21.0,4.0
# From MPEC 2023-J29
P/2022 BV9 (Lemmon),e,11.9282,337.3108,16.3241,4.363844,0.1081186,0.23409841,146.9778,07/14.0/2024,2000,g  9.5,4.0
# From MPEC 2023-J29
P/2022 C1 (PANSTARRS),e,4.7625,113.1130,9.3840,7.228831,0.0507110,0.44883834,49.8072,07/14.0/2024,2000,g 12.0,4.0
# From MPEC 2023-VM5
P/2022 C2 (PANSTARRS),e,9.9833,135.2607,89.2008,6.035768,0.0664669,0.44184310,47.0597,07/14.0/2024,2000,g 12.5,4.0
# From MPEC 2023-UR6
P/2022 C3 (PANSTARRS),e,12.8214,139.0405,93.8604,9.621149,0.0330266,0.54550851,24.5899,07/14.0/2024,2000,g 11.5,4.0
# From MPEC 2022-K19
P/2022 D1 (PANSTARRS),e,44.0768,47.9578,88.6549,7.403768,0.0489243,0.54765491,51.4053,07/14.0/2024,2000,g 12.5,4.0
# From MPEC 2022-K19
C/2022 D2 (Kowalski),e,22.6668,312.4020,177.8097,378.6172,0.0001338,0.99589800,0.0000,03/27.7652/2022,2000,g 17.0,4.0
# From MPEC 2022-L66
P/2022 E1 (Christensen),e,19.0071,113.3448,114.9845,3.778783,0.1341764,0.22061977,102.6536,07/14.0/2024,2000,g 13.5,4.0
# From MPEC 2024-JU4
C/2022 E2 (ATLAS),h,09/14.1225/2024,137.1277,125.3718,41.7202,1.000936,3.666283,2000,5.0,4.0
# From MPEC 2024-GJ3
C/2022 E3 (ZTF),h,01/12.6910/2023,109.1689,302.5421,145.8094,1.000038,1.112616,2000,7.5,4.0
# From MPEC 2024-NE4
C/2022 F1 (ATLAS),e,57.9882,350.6408,278.2929,3978,0.0000039,0.99849789,0.0000,08/05.1810/2022,2000,g  7.0,4.0
# From MPEC 2022-QD9
C/2022 F2 (NEOWISE),e,97.3138,58.7831,200.6204,23.93095,0.0084191,0.93359967,7.1057,07/14.0/2024,2000,g 14.5,4.0
# From MPEC 2024-JU4
C/2022 H1 (PANSTARRS),e,49.8605,6.3482,246.3024,887.2088,0.0000373,0.99133260,0.0000,01/19.0334/2024,2000,g  6.0,4.0
# From MPEC 2022-VC5
C/2022 J1 (Maury-Attard),e,105.9548,280.7773,305.6540,47.59977,0.0030012,0.96632245,2.6287,07/14.0/2024,2000,g 14.9,4.0
# From MPEC 2023-M14
